{"type": "FeatureCollection", "features": [{"type": "Feature", "properties": {"norad_id": 22490, "name": "SCD 1", "group": "resource", "lat": -23.80948052106918, "lon": -90.55097109735829, "alt_km": 728.6024544888778, "timestamp": "2025-12-02T15:49:06.839158+00:00", "meta": {"OBJECT_NAME": "SCD 1", "OBJECT_ID": "1993-009B", "EPOCH": "2025-12-02T07:58:47.870400", "MEAN_MOTION": 14.45986716, "ECCENTRICITY": 0.00418655, "INCLINATION": 24.971, "RA_OF_ASC_NODE": 342.9298, "ARG_OF_PERICENTER": 214.3239, "MEAN_ANOMALY": 168.5182, "EPHEMERIS_TYPE": 0, "CLASSIFICATION_TYPE": "U", "NORAD_CAT_ID": 22490, "ELEMENT_SET_NO": 999, "REV_AT_EPOCH": 73259, "BSTAR": 0.0001245468, "MEAN_MOTION_DOT": 6.42e-06, "MEAN_MOTION_DDOT": 0}, "tle": {"line1": "1 22490U 93009B   25336.33249850  .00000642  00000+0  12455-3 0  9992", "line2": "2 22490  24.9710 342.9298 0041865 214.3239 168.5182 14.45986716732595"}}, "geometry": {"type": "Point", "coordinates": [-90.55097109735829, -23.80948052106918]}}, {"type": "Feature", "properties": {"norad_id": 25397, "name": "TECHSAT 1B (GO-32)", "group": "resource", "lat": -12.844837344100693, "lon": -38.29197608459014, "alt_km": 814.9128833519126, "timestamp": "2025-12-02T15:49:06.839185+00:00", "meta": {"OBJECT_NAME": "TECHSAT 1B (GO-32)", "OBJECT_ID": "1998-043D", "EPOCH": "2025-12-01T23:01:13.773216", "MEAN_MOTION": 14.24372045, "ECCENTRICITY": 0.00022624, "INCLINATION": 98.9914, "RA_OF_ASC_NODE": 318.9231, "ARG_OF_PERICENTER": 75.0974, "MEAN_ANOMALY": 285.0454, "EPHEMERIS_TYPE": 0, "CLASSIFICATION_TYPE": "U", "NORAD_CAT_ID": 25397, "ELEMENT_SET_NO": 999, "REV_AT_EPOCH": 42325, "BSTAR": 7.5054601e-05, "MEAN_MOTION_DOT": 1.27e-06, "MEAN_MOTION_DDOT": 0}, "tle": {"line1": "1 25397U 98043D   25335.95918719  .00000127  00000+0  75055-4 0  9992", "line2": "2 25397  98.9914 318.9231 0002262  75.0974 285.0454 14.24372045423255"}}, "geometry": {"type": "Point", "coordinates": [-38.29197608459014, -12.844837344100693]}}, {"type": "Feature", "properties": {"norad_id": 25504, "name": "SCD 2", "group": "resource", "lat": -8.455530874807643, "lon": -174.5497982350457, "alt_km": 747.9635626089439, "timestamp": "2025-12-02T15:49:06.839200+00:00", "meta": {"OBJECT_NAME": "SCD 2", "OBJECT_ID": "1998-060A", "EPOCH": "2025-12-01T23:26:54.737088", "MEAN_MOTION": 14.45413511, "ECCENTRICITY": 0.00167452, "INCLINATION": 24.9938, "RA_OF_ASC_NODE": 208.2619, "ARG_OF_PERICENTER": 198.6067, "MEAN_ANOMALY": 184.5013, "EPHEMERIS_TYPE": 0, "CLASSIFICATION_TYPE": "U", "NORAD_CAT_ID": 25504, "ELEMENT_SET_NO": 999, "REV_AT_EPOCH": 43176, "BSTAR": 8.5864685e-05, "MEAN_MOTION_DOT": 4.9e-06, "MEAN_MOTION_DDOT": 0}, "tle": {"line1": "1 25504U 98060A   25335.97702242  .00000490  00000+0  85865-4 0  9998", "line2": "2 25504  24.9938 208.2619 0016745 198.6067 184.5013 14.45413511431763"}}, "geometry": {"type": "Point", "coordinates": [-174.5497982350457, -8.455530874807643]}}, {"type": "Feature", "properties": {"norad_id": 25757, "name": "DLR-TUBSAT", "group": "resource", "lat": -81.15291721202945, "lon": 38.998406298916926, "alt_km": 718.8627047920072, "timestamp": "2025-12-02T15:49:06.839212+00:00", "meta": {"OBJECT_NAME": "DLR-TUBSAT", "OBJECT_ID": "1999-029B", "EPOCH": "2025-12-02T04:38:59.867808", "MEAN_MOTION": 14.52350918, "ECCENTRICITY": 0.00133358, "INCLINATION": 98.6554, "RA_OF_ASC_NODE": 320.3826, "ARG_OF_PERICENTER": 226.12, "MEAN_ANOMALY": 133.8894, "EPHEMERIS_TYPE": 0, "CLASSIFICATION_TYPE": "U", "NORAD_CAT_ID": 25757, "ELEMENT_SET_NO": 999, "REV_AT_EPOCH": 40465, "BSTAR": 5.3217783e-05, "MEAN_MOTION_DOT": 1.68e-06, "MEAN_MOTION_DDOT": 0}, "tle": {"line1": "1 25757U 99029B   25336.19374847  .00000168  00000+0  53218-4 0  9994", "line2": "2 25757  98.6554 320.3826 0013335 226.1200 133.8894 14.52350918404650"}}, "geometry": {"type": "Point", "coordinates": [38.998406298916926, -81.15291721202945]}}, {"type": "Feature", "properties": {"norad_id": 25994, "name": "TERRA", "group": "resource", "lat": 24.537294642344932, "lon": 25.04276359748213, "alt_km": 689.627343049483, "timestamp": "2025-12-02T15:49:06.839256+00:00", "meta": {"OBJECT_NAME": "TERRA", "OBJECT_ID": "1999-068A", "EPOCH": "2025-12-02T06:09:28.516320", "MEAN_MOTION": 14.60932968, "ECCENTRICITY": 0.00033676, "INCLINATION": 97.9764, "RA_OF_ASC_NODE": 28.3249, "ARG_OF_PERICENTER": 118.9781, "MEAN_ANOMALY": 310.189, "EPHEMERIS_TYPE": 0, "CLASSIFICATION_TYPE": "U", "NORAD_CAT_ID": 25994, "ELEMENT_SET_NO": 999, "REV_AT_EPOCH": 38085, "BSTAR": 0.00015611257, "MEAN_MOTION_DOT": 7.2e-06, "MEAN_MOTION_DDOT": 0}, "tle": {"line1": "1 25994U 99068A   25336.25658005  .00000720  00000+0  15611-3 0  9996", "line2": "2 25994  97.9764  28.3249 0003367 118.9781 310.1890 14.60932968380859"}}, "geometry": {"type": "Point", "coordinates": [25.04276359748213, 24.537294642344932]}}, {"type": "Feature", "properties": {"norad_id": 27004, "name": "MAROC-TUBSAT", "group": "resource", "lat": 57.11607033201821, "lon": 129.43681967843375, "alt_km": 1002.4161405914165, "timestamp": "2025-12-02T15:49:06.839271+00:00", "meta": {"OBJECT_NAME": "MAROC-TUBSAT", "OBJECT_ID": "2001-056D", "EPOCH": "2025-12-02T05:53:46.796064", "MEAN_MOTION": 13.70252084, "ECCENTRICITY": 0.00191147, "INCLINATION": 99.7911, "RA_OF_ASC_NODE": 144.5069, "ARG_OF_PERICENTER": 288.0948, "MEAN_ANOMALY": 251.912, "EPHEMERIS_TYPE": 0, "CLASSIFICATION_TYPE": "U", "NORAD_CAT_ID": 27004, "ELEMENT_SET_NO": 999, "REV_AT_EPOCH": 19921, "BSTAR": 3.5910157e-05, "MEAN_MOTION_DOT": -1.5e-07, "MEAN_MOTION_DDOT": 0}, "tle": {"line1": "1 27004U 01056D   25336.24568051 -.00000015  00000+0  35910-4 0  9993", "line2": "2 27004  99.7911 144.5069 0019114 288.0948 251.9120 13.70252084199219"}}, "geometry": {"type": "Point", "coordinates": [129.43681967843375, 57.11607033201821]}}, {"type": "Feature", "properties": {"norad_id": 27424, "name": "AQUA", "group": "resource", "lat": -47.65190659079089, "lon": 108.0429843894113, "alt_km": 694.5570426322711, "timestamp": "2025-12-02T15:49:06.839284+00:00", "meta": {"OBJECT_NAME": "AQUA", "OBJECT_ID": "2002-022A", "EPOCH": "2025-12-02T07:11:08.219616", "MEAN_MOTION": 14.61768057, "ECCENTRICITY": 7.234e-05, "INCLINATION": 98.4022, "RA_OF_ASC_NODE": 297.0099, "ARG_OF_PERICENTER": 106.5599, "MEAN_ANOMALY": 29.8987, "EPHEMERIS_TYPE": 0, "CLASSIFICATION_TYPE": "U", "NORAD_CAT_ID": 27424, "ELEMENT_SET_NO": 999, "REV_AT_EPOCH": 25450, "BSTAR": 0.00031241114, "MEAN_MOTION_DOT": 1.509e-05, "MEAN_MOTION_DDOT": 0}, "tle": {"line1": "1 27424U 02022A   25336.29940069  .00001509  00000+0  31241-3 0  9991", "line2": "2 27424  98.4022 297.0099 0000723 106.5599  29.8987 14.61768057254503"}}, "geometry": {"type": "Point", "coordinates": [108.0429843894113, -47.65190659079089]}}, {"type": "Feature", "properties": {"norad_id": 28051, "name": "IRS-P6 (RESOURCESAT-1)", "group": "resource", "lat": -53.60899921029254, "lon": 28.842281891301877, "alt_km": 781.8517553399906, "timestamp": "2025-12-02T15:49:06.839295+00:00", "meta": {"OBJECT_NAME": "IRS-P6 (RESOURCESAT-1)", "OBJECT_ID": "2003-046A", "EPOCH": "2025-12-02T06:39:35.219808", "MEAN_MOTION": 14.36066552, "ECCENTRICITY": 0.00635876, "INCLINATION": 98.2192, "RA_OF_ASC_NODE": 17.1687, "ARG_OF_PERICENTER": 212.2126, "MEAN_ANOMALY": 280.9617, "EPHEMERIS_TYPE": 0, "CLASSIFICATION_TYPE": "U", "NORAD_CAT_ID": 28051, "ELEMENT_SET_NO": 999, "REV_AT_EPOCH": 15226, "BSTAR": 0.00011392215, "MEAN_MOTION_DOT": 2.98e-06, "MEAN_MOTION_DDOT": 0}, "tle": {"line1": "1 28051U 03046A   25336.27749097  .00000298  00000+0  11392-3 0  9990", "line2": "2 28051  98.2192  17.1687 0063587 212.2126 280.9617 14.36066552152261"}}, "geometry": {"type": "Point", "coordinates": [28.842281891301877, -53.60899921029254]}}, {"type": "Feature", "properties": {"norad_id": 28220, "name": "SHIYAN-1 (SY-1)", "group": "resource", "lat": 82.08588419037503, "lon": -49.10940843857682, "alt_km": 474.88157245235743, "timestamp": "2025-12-02T15:49:06.839306+00:00", "meta": {"OBJECT_NAME": "SHIYAN-1 (SY-1)", "OBJECT_ID": "2004-012A", "EPOCH": "2025-12-02T04:25:28.936416", "MEAN_MOTION": 15.27718454, "ECCENTRICITY": 0.00063995, "INCLINATION": 97.8958, "RA_OF_ASC_NODE": 37.103, "ARG_OF_PERICENTER": 4.3117, "MEAN_ANOMALY": 355.8175, "EPHEMERIS_TYPE": 0, "CLASSIFICATION_TYPE": "U", "NORAD_CAT_ID": 28220, "ELEMENT_SET_NO": 999, "REV_AT_EPOCH": 18095, "BSTAR": 0.00060612109, "MEAN_MOTION_DOT": 0.00016363, "MEAN_MOTION_DDOT": 0}, "tle": {"line1": "1 28220U 04012A   25336.18436269  .00016363  00000+0  60612-3 0  9995", "line2": "2 28220  97.8958  37.1030 0006399   4.3117 355.8175 15.27718454180950"}}, "geometry": {"type": "Point", "coordinates": [-49.10940843857682, 82.08588419037503]}}, {"type": "Feature", "properties": {"norad_id": 28376, "name": "AURA", "group": "resource", "lat": 30.39332724326351, "lon": -78.08214811046449, "alt_km": 688.2494337385097, "timestamp": "2025-12-02T15:49:06.839317+00:00", "meta": {"OBJECT_NAME": "AURA", "OBJECT_ID": "2004-026A", "EPOCH": "2025-12-02T07:27:33.557184", "MEAN_MOTION": 14.60906098, "ECCENTRICITY": 0.00010742, "INCLINATION": 98.3169, "RA_OF_ASC_NODE": 286.4901, "ARG_OF_PERICENTER": 90.2752, "MEAN_ANOMALY": 269.8572, "EPHEMERIS_TYPE": 0, "CLASSIFICATION_TYPE": "U", "NORAD_CAT_ID": 28376, "ELEMENT_SET_NO": 999, "REV_AT_EPOCH": 13746, "BSTAR": 0.00032394974, "MEAN_MOTION_DOT": 1.538e-05, "MEAN_MOTION_DDOT": 0}, "tle": {"line1": "1 28376U 04026A   25336.31080506  .00001538  00000+0  32395-3 0  9991", "line2": "2 28376  98.3169 286.4901 0001074  90.2752 269.8572 14.60906098137464"}}, "geometry": {"type": "Point", "coordinates": [-78.08214811046449, 30.39332724326351]}}]}